     2.11           N: GPS NAV DATA                         RINEX VERSION / TYPE
teqc  2019Feb25                         20221121 12:24:48UTCPGM / RUN BY / DATE
OSX ker:10.11.6|Core i5|gcc 4.3 -m64|OSX ker:10.10+|=+      COMMENT
    4.6566D-09  1.4901D-08 -5.9605D-08 -1.1921D-07          ION ALPHA
    8.1920D+04  8.1920D+04 -6.5536D+04 -5.2429D+05          ION BETA
    1.862645149231D-09 9.769962616701D-15    61440     1539 DELTA-UTC: A0,A1,T,W
                                                            END OF HEADER
16 09  7  4  0  0  0.0 3.615953028202D-05-3.524291969370D-12 0.000000000000D+00
    1.020000000000D+02-3.778125000000D+01 4.343038047824D-09-2.553539064032D+00
   -1.853331923485D-06 5.348843289539D-03 1.004897058010D-05 5.153576192856D+03
    5.184000000000D+05-1.341104507446D-07-3.096709488666D+00 5.774199962616D-08
    9.691663907903D-01 1.926875000000D+02-3.249932024599D-01-7.615674366263D-09
    5.178787145843D-10 1.000000000000D+00 1.538000000000D+03 0.000000000000D+00
    2.000000000000D+00 0.000000000000D+00-9.778887033463D-09 1.020000000000D+02
    5.112180000000D+05 4.000000000000D+00
 3 09  7  4  0  0  0.0 4.152259789407D-04 5.229594535194D-12 0.000000000000D+00
    1.150000000000D+02 7.125000000000D+00 5.867030099639D-09 1.258303099546D+00
    5.159527063370D-07 1.202012423892D-02 6.219372153282D-06 5.153630432129D+03
    5.184000000000D+05-2.086162567139D-07-2.186818380643D+00 1.639127731323D-07
    9.261988834440D-01 2.457500000000D+02 9.102602285865D-01-8.656074845976D-09
    7.428880871279D-11 1.000000000000D+00 1.538000000000D+03 0.000000000000D+00
    2.800000000000D+00 0.000000000000D+00-4.190951585770D-09 1.150000000000D+02
    5.112180000000D+05 4.000000000000D+00
 6 09  7  4  0  0  0.0 1.816134899855D-04 1.182343112305D-11 0.000000000000D+00
    5.600000000000D+01 7.218750000000D+00 5.579875281345D-09-2.616717650691D+00
    4.936009645462D-07 5.977308843285D-03 5.569308996201D-06 5.153692649841D+03
    5.184000000000D+05 1.862645149231D-08-2.118907875738D+00 1.341104507446D-07
    9.336138812227D-01 2.560937500000D+02-1.324007699538D+00-8.266415757968D-09
    1.389343586023D-10 1.000000000000D+00 1.538000000000D+03 0.000000000000D+00
    2.000000000000D+00 0.000000000000D+00-4.656612873077D-09 5.600000000000D+01
    5.112180000000D+05 4.000000000000D+00
 7 09  7  4  0  0  0.0 1.589115709066D-05-6.821210263297D-13 0.000000000000D+00
    2.100000000000D+01-1.269687500000D+02 4.234819254363D-09-1.119432594575D-01
   -6.515532732010D-06 2.780787413940D-03 5.608424544334D-06 5.153668674469D+03
    5.184000000000D+05 4.097819328308D-08 2.117383915939D+00 0.000000000000D+00
    9.678101735670D-01 2.734375000000D+02 2.878175195984D+00-8.011405135752D-09
    1.535778257043D-11 1.000000000000D+00 1.538000000000D+03 0.000000000000D+00
    2.000000000000D+00 0.000000000000D+00-1.071020960808D-08 2.100000000000D+01
    5.112180000000D+05 4.000000000000D+00
25 09  7  4  0  0  0.0 4.918682388961D-04 1.773514668457D-11 0.000000000000D+00
    6.300000000000D+01-1.229062500000D+02 4.179102647828D-09-1.943041736402D+00
   -5.997717380524D-06 1.130491204094D-02 5.062669515610D-06 5.153652280807D+03
    5.184000000000D+05-1.490116119385D-08 2.022927061112D+00 2.887099981308D-07
    9.699773272434D-01 2.853750000000D+02-1.209292200080D+00-7.911400970177D-09
   -1.892935991239D-11 1.000000000000D+00 1.538000000000D+03 0.000000000000D+00
    2.800000000000D+00 0.000000000000D+00-7.450580596924D-09 6.300000000000D+01
    5.112180000000D+05 4.000000000000D+00
21 09  7  4  0  0  0.0 4.790723323822D-06-2.160049916711D-12 0.000000000000D+00
    9.600000000000D+01 1.481250000000D+01 5.035209736696D-09-1.081575819334D+00
    6.482005119324D-07 1.545656635426D-02 8.106231689453D-06 5.153601276398D+03
    5.184000000000D+05 4.302710294724D-07-1.007020177290D+00-7.450580596924D-09
    9.335926147826D-01 2.084687500000D+02-2.583329734693D+00-8.105694777580D-09
   -5.957391006391D-10 1.000000000000D+00 1.538000000000D+03 0.000000000000D+00
    2.000000000000D+00 0.000000000000D+00-1.210719347000D-08 9.600000000000D+01
    5.112180000000D+05 4.000000000000D+00
13 09  7  4  0  0  0.0 3.007184714079D-04 7.958078640513D-13 0.000000000000D+00
    8.600000000000D+01 1.781250000000D+01 3.739084319299D-09 2.173044142342D+00
    8.940696716309D-07 4.158797906712D-03 8.363276720047D-07 5.153687469482D+03
    5.184000000000D+05 6.146728992462D-08 1.127932441199D+00 3.166496753693D-08
    9.946579094830D-01 3.809375000000D+02 1.612204084051D+00-7.941045062116D-09
    1.482204596914D-10 1.000000000000D+00 1.538000000000D+03 0.000000000000D+00
    2.000000000000D+00 0.000000000000D+00-1.117587089539D-08 8.600000000000D+01
    5.112180000000D+05 4.000000000000D+00
18 09  7  4  0  0  0.0-4.295259714127D-05 3.183231456205D-12 0.000000000000D+00
    4.400000000000D+01 1.073750000000D+02 4.466257466122D-09-2.361462911700D+00
    5.571171641350D-06 1.061235310044D-02 7.042661309242D-06 5.153610622406D+03
    5.184000000000D+05-9.313225746155D-09 5.094592607946D-02-9.126961231232D-08
    9.421946067358D-01 2.355312500000D+02-2.410125411375D+00-7.831040479983D-09
    7.607459738377D-11 1.000000000000D+00 1.538000000000D+03 0.000000000000D+00
    2.000000000000D+00 0.000000000000D+00-1.071020960808D-08 4.400000000000D+01
    5.127120000000D+05 4.000000000000D+00
15 09  7  4  0  0  0.0-3.058477304876D-04-2.842170943040D-12 0.000000000000D+00
    5.500000000000D+01 2.696875000000D+01 4.607334771129D-09 2.247634095668D+00
    1.305714249611D-06 1.460471656173D-03 1.111999154091D-06 5.153634506226D+03
    5.184000000000D+05 2.235174179077D-08 1.054523032043D+00-3.725290298462D-09
    9.561630181534D-01 3.542500000000D+02-4.673651067641D-01-8.339633093479D-09
    1.296482575132D-10 1.000000000000D+00 1.538000000000D+03 0.000000000000D+00
    2.000000000000D+00 0.000000000000D+00-9.778887033463D-09 5.500000000000D+01
    5.137920000000D+05 4.000000000000D+00
28 09  7  4  0  0  0.0-2.579577267170D-05-2.273736754432D-13 0.000000000000D+00
    8.100000000000D+01-4.465625000000D+01 4.294821753708D-09 3.138030085263D+00
   -2.378597855568D-06 1.493190543260D-02 9.583309292793D-06 5.153649673462D+03
    5.184000000000D+05 1.788139343262D-07-3.088577674195D+00-2.682209014893D-07
    9.673661062470D-01 1.964375000000D+02-2.023026811644D+00-7.463168013761D-09
    4.507330605555D-10 1.000000000000D+00 1.538000000000D+03 0.000000000000D+00
    2.800000000000D+00 0.000000000000D+00-1.071020960808D-08 8.100000000000D+01
    5.152620000000D+05 4.000000000000D+00
11 09  7  4  0  0  0.0-9.146519005299D-06-1.705302565824D-12 0.000000000000D+00
    8.300000000000D+01-4.437500000000D+00 6.431696477403D-09-2.942897543038D-01
   -2.887099981308D-07 9.462967980653D-03 6.854534149170D-06 5.153683731079D+03
    5.184000000000D+05 1.303851604462D-08-1.240298270396D+00 1.061707735062D-07
    8.889078976219D-01 2.046250000000D+02 7.015128110415D-01-8.957873131372D-09
   -6.721708557570D-10 1.000000000000D+00 1.538000000000D+03 0.000000000000D+00
    2.000000000000D+00 0.000000000000D+00-1.164153218269D-08 8.300000000000D+01
    5.167920000000D+05 4.000000000000D+00
